{
    "links": {
        "self": "http://www.neowsapp.com/rest/v1/neo/3306402?api_key=iIulBulltgU6a56xZRHN4H3l9WmuAYTsLGpBGhQ2"
    },
    "id": "3306402",
    "neo_reference_id": "3306402",
    "name": "(2005 XL4)",
    "designation": "2005 XL4",
    "nasa_jpl_url": "http://ssd.jpl.nasa.gov/sbdb.cgi?sstr=3306402",
    "absolute_magnitude_h": 22.8,
    "estimated_diameter": {
        "kilometers": {
            "estimated_diameter_min": 0.0732073989,
            "estimated_diameter_max": 0.1636967205
        },
        "meters": {
            "estimated_diameter_min": 73.2073989347,
            "estimated_diameter_max": 163.696720474
        },
        "miles": {
            "estimated_diameter_min": 0.0454889547,
            "estimated_diameter_max": 0.1017163949
        },
        "feet": {
            "estimated_diameter_min": 240.181762721,
            "estimated_diameter_max": 537.0627483999
        }
    },
    "is_potentially_hazardous_asteroid": false,
    "close_approach_data": [
        {
            "close_approach_date": "2005-12-11",
            "close_approach_date_full": "2005-Dec-11 07:36",
            "epoch_date_close_approach": 1134286560000,
            "relative_velocity": {
                "kilometers_per_second": "7.0481924527",
                "kilometers_per_hour": "25373.4928296057",
                "miles_per_hour": "15766.1016973736"
            },
            "miss_distance": {
                "astronomical": "0.2140195615",
                "lunar": "83.2536094235",
                "kilometers": "32016870.538734005",
                "miles": "19894360.838999069"
            },
            "orbiting_body": "Earth"
        },
        {
            "close_approach_date": "2120-12-11",
            "close_approach_date_full": "2120-Dec-11 18:34",
            "epoch_date_close_approach": 4763385240000,
            "relative_velocity": {
                "kilometers_per_second": "7.3634991814",
                "kilometers_per_hour": "26508.5970528751",
                "miles_per_hour": "16471.4113187712"
            },
            "miss_distance": {
                "astronomical": "0.2015979055",
                "lunar": "78.4215852395",
                "kilometers": "30158617.259261285",
                "miles": "18739695.793664333"
            },
            "orbiting_body": "Earth"
        }
    ],
    "orbital_data": {
        "orbit_id": "8",
        "orbit_determination_date": "2017-04-06 09:09:41",
        "first_observation_date": "2005-12-04",
        "last_observation_date": "2005-12-28",
        "data_arc_in_days": 24,
        "observations_used": 32,
        "orbit_uncertainty": "8",
        "minimum_orbit_intersection": ".214",
        "jupiter_tisserand_invariant": "3.029",
        "epoch_osculation": "2453711.5",
        "eccentricity": ".5754540562873651",
        "semi_major_axis": "2.820542409200328",
        "inclination": "10.48523442255768",
        "ascending_node_longitude": "74.61532611871245",
        "orbital_period": "1730.204264096931",
        "perihelion_distance": "1.197449838895462",
        "perihelion_argument": "7.662856044340735",
        "aphelion_distance": "4.443634979505194",
        "perihelion_time": "2453718.982373741245",
        "mean_anomaly": "358.4431580694005",
        "mean_motion": ".2080679186095404",
        "equinox": "J2000",
        "orbit_class": {
            "orbit_class_type": "AMO",
            "orbit_class_description": "Near-Earth asteroid orbits similar to that of 1221 Amor",
            "orbit_class_range": "1.017 AU < q (perihelion) < 1.3 AU"
        }
    },
    "is_sentry_object": false
}